start=new Date('2023-05-17T00:00:00.000Z').valueOf();
sats=[{"TLE_LINE2":"2 53792  53.2136 209.7526 0000652  76.2151 283.8914 15.08840387 38464","MEAN_ANOMALY":"283.8914","ARG_OF_PERICENTER":"76.2151","OBJECT_NAME":"STARLINK-4739","MEAN_MOTION_DDOT":"0.0000000000000","COUNTRY_CODE":"US","TIME_SYSTEM":"UTC","REF_FRAME":"TEME","MEAN_ELEMENT_THEORY":"SGP4","DECAY_DATE":null,"RCS_SIZE":"LARGE","CLASSIFICATION_TYPE":"U","ELEMENT_SET_NO":"999","PERIOD":"95.438","GP_ID":"231965893","NORAD_CAT_ID":"53792","SEMIMAJOR_AXIS":"6917.879","TLE_LINE1":"1 53792U 22111V   23136.47601205  .00001856  00000-0  13462-3 0  9992","PERIAPSIS":"539.293","INCLINATION":"53.2136","BSTAR":"0.00013462000000","EPHEMERIS_TYPE":"0","ECCENTRICITY":"0.00006520","CENTER_NAME":"EARTH","LAUNCH_DATE":"2022-09-11","OBJECT_ID":"2022-111V","APOAPSIS":"540.195","EPOCH":"2023-05-16T11:25:27.441120","FILE":"3909472","MEAN_MOTION":"15.08840387","SITE":"AFETR","REV_AT_EPOCH":"3846","MEAN_MOTION_DOT":"0.00001856","OBJECT_TYPE":"PAYLOAD","RA_OF_ASC_NODE":"209.7526"},{"BSTAR":"0.00035082000000","INCLINATION":"53.2155","PERIAPSIS":"539.326","TLE_LINE1":"1 53793U 22111W   23136.73824205  .00005301  00000-0  35082-3 0  9990","SEMIMAJOR_AXIS":"6917.853","NORAD_CAT_ID":"53793","GP_ID":"231998617","OBJECT_TYPE":"PAYLOAD","RA_OF_ASC_NODE":"208.5443","MEAN_MOTION_DOT":"0.00005301","REV_AT_EPOCH":"3850","SITE":"AFETR","MEAN_MOTION":"15.08848980","EPOCH":"2023-05-16T17:43:04.113120","FILE":"3909742","OBJECT_ID":"2022-111W","APOAPSIS":"540.110","LAUNCH_DATE":"2022-09-11","CENTER_NAME":"EARTH","ECCENTRICITY":"0.00005670","EPHEMERIS_TYPE":"0","COUNTRY_CODE":"US","MEAN_MOTION_DDOT":"0.0000000000000","OBJECT_NAME":"STARLINK-4728","ARG_OF_PERICENTER":"74.8859","MEAN_ANOMALY":"285.2196","TLE_LINE2":"2 53793  53.2155 208.5443 0000567  74.8859 285.2196 15.08848980 38505","PERIOD":"95.437","ELEMENT_SET_NO":"999","CLASSIFICATION_TYPE":"U","RCS_SIZE":"LARGE","DECAY_DATE":null,"MEAN_ELEMENT_THEORY":"SGP4","REF_FRAME":"TEME","TIME_SYSTEM":"UTC"},{"MEAN_MOTION":"15.08838198","EPOCH":"2023-05-16T14:42:54.937440","FILE":"3909742","OBJECT_ID":"2022-111X","APOAPSIS":"540.602","RA_OF_ASC_NODE":"209.1802","OBJECT_TYPE":"PAYLOAD","MEAN_MOTION_DOT":"0.00001396","REV_AT_EPOCH":"3848","SITE":"AFETR","EPHEMERIS_TYPE":"0","LAUNCH_DATE":"2022-09-11","CENTER_NAME":"EARTH","ECCENTRICITY":"0.00012300","SEMIMAJOR_AXIS":"6917.886","NORAD_CAT_ID":"53794","BSTAR":"0.00010580000000","INCLINATION":"53.2157","TLE_LINE1":"1 53794U 22111X   23136.61313585  .00001396  00000-0  10580-3 0  9998","PERIAPSIS":"538.900","GP_ID":"231998866","CLASSIFICATION_TYPE":"U","RCS_SIZE":"LARGE","DECAY_DATE":null,"ELEMENT_SET_NO":"999","PERIOD":"95.438","MEAN_ELEMENT_THEORY":"SGP4","REF_FRAME":"TEME","TIME_SYSTEM":"UTC","MEAN_MOTION_DDOT":"0.0000000000000","OBJECT_NAME":"STARLINK-4730","COUNTRY_CODE":"US","MEAN_ANOMALY":"268.1260","TLE_LINE2":"2 53794  53.2157 209.1802 0001230  91.9873 268.1260 15.08838198 38487","ARG_OF_PERICENTER":"91.9873"},{"GP_ID":"231999618","TLE_LINE1":"1 53795U 22111Y   23136.59743635  .00001819  00000-0  13233-3 0  9997","PERIAPSIS":"538.958","BSTAR":"0.00013233000000","INCLINATION":"53.2160","NORAD_CAT_ID":"53795","SEMIMAJOR_AXIS":"6917.873","ECCENTRICITY":"0.00011270","CENTER_NAME":"EARTH","LAUNCH_DATE":"2022-09-11","EPHEMERIS_TYPE":"0","REV_AT_EPOCH":"3848","SITE":"AFETR","OBJECT_TYPE":"PAYLOAD","RA_OF_ASC_NODE":"209.0890","MEAN_MOTION_DOT":"0.00001819","FILE":"3909742","EPOCH":"2023-05-16T14:20:18.500640","OBJECT_ID":"2022-111Y","APOAPSIS":"540.518","MEAN_MOTION":"15.08842415","ARG_OF_PERICENTER":"86.8154","TLE_LINE2":"2 53795  53.2160 209.0890 0001127  86.8154 273.2967 15.08842415 38486","MEAN_ANOMALY":"273.2967","COUNTRY_CODE":"US","OBJECT_NAME":"STARLINK-4742","MEAN_MOTION_DDOT":"0.0000000000000","TIME_SYSTEM":"UTC","MEAN_ELEMENT_THEORY":"SGP4","REF_FRAME":"TEME","PERIOD":"95.437","ELEMENT_SET_NO":"999","RCS_SIZE":"LARGE","DECAY_DATE":null,"CLASSIFICATION_TYPE":"U"},{"DECAY_DATE":null,"RCS_SIZE":"LARGE","CLASSIFICATION_TYPE":"U","ELEMENT_SET_NO":"999","PERIOD":"95.437","TIME_SYSTEM":"UTC","REF_FRAME":"TEME","MEAN_ELEMENT_THEORY":"SGP4","OBJECT_NAME":"STARLINK-4721","MEAN_MOTION_DDOT":"0.0000000000000","COUNTRY_CODE":"US","TLE_LINE2":"2 53796  53.2166 187.8595 0001257  87.7527 272.3610 15.08841169 38835","MEAN_ANOMALY":"272.3610","ARG_OF_PERICENTER":"87.7527","OBJECT_ID":"2022-111Z","APOAPSIS":"540.611","FILE":"3909742","EPOCH":"2023-05-16T20:49:47.768736","MEAN_MOTION":"15.08841169","SITE":"AFETR","REV_AT_EPOCH":"3883","MEAN_MOTION_DOT":"0.00000280","RA_OF_ASC_NODE":"187.8595","OBJECT_TYPE":"PAYLOAD","EPHEMERIS_TYPE":"0","ECCENTRICITY":"0.00012570","LAUNCH_DATE":"2022-09-11","CENTER_NAME":"EARTH","NORAD_CAT_ID":"53796","SEMIMAJOR_AXIS":"6917.877","TLE_LINE1":"1 53796U 22111Z   23136.86791399  .00000280  00000-0  35684-4 0  9994","PERIAPSIS":"538.872","INCLINATION":"53.2166","BSTAR":"0.00003568400000","GP_ID":"231999369"},{"ARG_OF_PERICENTER":"83.3318","TLE_LINE2":"2 53797  53.2156 208.4262 0000792  83.3318 276.7765 15.08848840 38493","MEAN_ANOMALY":"276.7765","COUNTRY_CODE":"US","OBJECT_NAME":"STARLINK-4723","MEAN_MOTION_DDOT":"0.0000000000000","TIME_SYSTEM":"UTC","MEAN_ELEMENT_THEORY":"SGP4","REF_FRAME":"TEME","ELEMENT_SET_NO":"999","PERIOD":"95.437","RCS_SIZE":"LARGE","DECAY_DATE":null,"CLASSIFICATION_TYPE":"U","GP_ID":"231998118","TLE_LINE1":"1 53797U 22111AA  23136.71886175  .00006170  00000-0  40532-3 0  9997","PERIAPSIS":"539.170","BSTAR":"0.00040532000000","INCLINATION":"53.2156","NORAD_CAT_ID":"53797","SEMIMAJOR_AXIS":"6917.853","ECCENTRICITY":"0.00007920","LAUNCH_DATE":"2022-09-11","CENTER_NAME":"EARTH","EPHEMERIS_TYPE":"0","REV_AT_EPOCH":"3849","SITE":"AFETR","OBJECT_TYPE":"PAYLOAD","RA_OF_ASC_NODE":"208.4262","MEAN_MOTION_DOT":"0.00006170","EPOCH":"2023-05-16T17:15:09.655200","FILE":"3909742","OBJECT_ID":"2022-111AA","APOAPSIS":"540.266","MEAN_MOTION":"15.08848840"},{"DECAY_DATE":null,"RCS_SIZE":"LARGE","CLASSIFICATION_TYPE":"U","ELEMENT_SET_NO":"999","PERIOD":"95.438","TIME_SYSTEM":"UTC","REF_FRAME":"TEME","MEAN_ELEMENT_THEORY":"SGP4","OBJECT_NAME":"STARLINK-4712","MEAN_MOTION_DDOT":"0.0000000000000","COUNTRY_CODE":"US","TLE_LINE2":"2 53798  53.2161 209.3404 0001155 104.7496 255.3624 15.08838298 38467","MEAN_ANOMALY":"255.3624","ARG_OF_PERICENTER":"104.7496","APOAPSIS":"540.550","OBJECT_ID":"2022-111AB","EPOCH":"2023-05-16T12:34:18.886080","FILE":"3909472","MEAN_MOTION":"15.08838298","SITE":"AFETR","REV_AT_EPOCH":"3846","MEAN_MOTION_DOT":"0.00000640","RA_OF_ASC_NODE":"209.3404","OBJECT_TYPE":"PAYLOAD","EPHEMERIS_TYPE":"0","ECCENTRICITY":"0.00011550","CENTER_NAME":"EARTH","LAUNCH_DATE":"2022-09-11","NORAD_CAT_ID":"53798","SEMIMAJOR_AXIS":"6917.886","PERIAPSIS":"538.952","TLE_LINE1":"1 53798U 22111AB  23136.52382970  .00000640  00000-0  58269-4 0  9994","INCLINATION":"53.2161","BSTAR":"0.00005826900000","GP_ID":"231966390"},{"COUNTRY_CODE":"US","OBJECT_NAME":"STARLINK-4710","MEAN_MOTION_DDOT":"0.0000000000000","ARG_OF_PERICENTER":"88.9836","TLE_LINE2":"2 53799  53.2152 198.0362 0001248  88.9836 271.1299 15.08835987 38656","MEAN_ANOMALY":"271.1299","PERIOD":"95.438","ELEMENT_SET_NO":"999","RCS_SIZE":"LARGE","DECAY_DATE":null,"CLASSIFICATION_TYPE":"U","TIME_SYSTEM":"UTC","MEAN_ELEMENT_THEORY":"SGP4","REF_FRAME":"TEME","PERIAPSIS":"538.894","TLE_LINE1":"1 53799U 22111AC  23136.88174735  .00001064  00000-0  84935-4 0  9992","BSTAR":"0.00008493500000","INCLINATION":"53.2152","NORAD_CAT_ID":"53799","SEMIMAJOR_AXIS":"6917.893","GP_ID":"231999119","REV_AT_EPOCH":"3865","SITE":"AFETR","RA_OF_ASC_NODE":"198.0362","OBJECT_TYPE":"PAYLOAD","MEAN_MOTION_DOT":"0.00001064","EPOCH":"2023-05-16T21:09:42.971040","FILE":"3909742","APOAPSIS":"540.621","OBJECT_ID":"2022-111AC","MEAN_MOTION":"15.08835987","ECCENTRICITY":"0.00012480","LAUNCH_DATE":"2022-09-11","CENTER_NAME":"EARTH","EPHEMERIS_TYPE":"0"},{"SEMIMAJOR_AXIS":"6917.888","NORAD_CAT_ID":"53800","INCLINATION":"53.2152","BSTAR":"0.00003145900000","TLE_LINE1":"1 53800U 22111AD  23136.88543142  .00000213  00000-0  31459-4 0  9995","PERIAPSIS":"538.979","GP_ID":"231999869","MEAN_MOTION":"15.08837441","APOAPSIS":"540.527","OBJECT_ID":"2022-111AD","FILE":"3909742","EPOCH":"2023-05-16T21:15:01.274688","MEAN_MOTION_DOT":"0.00000213","OBJECT_TYPE":"PAYLOAD","RA_OF_ASC_NODE":"198.0586","SITE":"AFETR","REV_AT_EPOCH":"3865","EPHEMERIS_TYPE":"0","LAUNCH_DATE":"2022-09-11","CENTER_NAME":"EARTH","ECCENTRICITY":"0.00011190","MEAN_MOTION_DDOT":"0.0000000000000","OBJECT_NAME":"STARLINK-4720","COUNTRY_CODE":"US","MEAN_ANOMALY":"275.8069","TLE_LINE2":"2 53800  53.2152 198.0586 0001119  84.3050 275.8069 15.08837441 38655","ARG_OF_PERICENTER":"84.3050","CLASSIFICATION_TYPE":"U","DECAY_DATE":null,"RCS_SIZE":"LARGE","PERIOD":"95.438","ELEMENT_SET_NO":"999","REF_FRAME":"TEME","MEAN_ELEMENT_THEORY":"SGP4","TIME_SYSTEM":"UTC"},{"APOAPSIS":"540.391","OBJECT_ID":"2022-111AE","FILE":"3909742","EPOCH":"2023-05-16T20:59:06.225504","MEAN_MOTION":"15.08836437","SITE":"AFETR","REV_AT_EPOCH":"3865","MEAN_MOTION_DOT":"0.00001092","RA_OF_ASC_NODE":"197.9917","OBJECT_TYPE":"PAYLOAD","EPHEMERIS_TYPE":"0","ECCENTRICITY":"0.00009180","CENTER_NAME":"EARTH","LAUNCH_DATE":"2022-09-11","NORAD_CAT_ID":"53801","SEMIMAJOR_AXIS":"6917.891","PERIAPSIS":"539.121","TLE_LINE1":"1 53801U 22111AE  23136.87437761  .00001092  00000-0  86696-4 0  9993","INCLINATION":"53.2152","BSTAR":"0.00008669600000","GP_ID":"231998618","DECAY_DATE":null,"RCS_SIZE":"LARGE","CLASSIFICATION_TYPE":"U","PERIOD":"95.438","ELEMENT_SET_NO":"999","TIME_SYSTEM":"UTC","REF_FRAME":"TEME","MEAN_ELEMENT_THEORY":"SGP4","OBJECT_NAME":"STARLINK-4715","MEAN_MOTION_DDOT":"0.0000000000000","COUNTRY_CODE":"US","TLE_LINE2":"2 53801  53.2152 197.9917 0000918  90.9011 269.2086 15.08836437 38658","MEAN_ANOMALY":"269.2086","ARG_OF_PERICENTER":"90.9011"}];
